[{"OBJECT_NAME":"STARLINK-34793","OBJECT_ID":"2025-165J","EPOCH":"2026-03-09T23:04:27.651360","MEAN_MOTION":15.05646458,"ECCENTRICITY":7.12e-5,"INCLINATION":97.6031,"RA_OF_ASC_NODE":147.5308,"ARG_OF_PERICENTER":102.7137,"MEAN_ANOMALY":257.417,"EPHEMERIS_TYPE":0,"CLASSIFICATION_TYPE":"U","NORAD_CAT_ID":65064,"ELEMENT_SET_NO":999,"REV_AT_EPOCH":3483,"BSTAR":0.00057183585,"MEAN_MOTION_DOT":8.199e-5,"MEAN_MOTION_DDOT":0},{"OBJECT_NAME":"USA 18","OBJECT_ID":"1986-014H","EPOCH":"2026-03-09T22:05:59.515872","MEAN_MOTION":13.90362984,"ECCENTRICITY":0.07661046,"INCLINATION":63.2943,"RA_OF_ASC_NODE":308.76,"ARG_OF_PERICENTER":110.5722,"MEAN_ANOMALY":257.9185,"EPHEMERIS_TYPE":0,"CLASSIFICATION_TYPE":"U","NORAD_CAT_ID":16631,"ELEMENT_SET_NO":999,"REV_AT_EPOCH":33054,"BSTAR":0.00071829243,"MEAN_MOTION_DOT":0.00012022,"MEAN_MOTION_DDOT":0}]
